COSMOS 1933             
1 18958U 88020A   26027.12425210  .00006502  00000+0  32199-3 0  9992
2 18958  82.5145 292.0283 0004423   8.7172 351.4138 15.17605002 43922
SL-3 R/B                
1 19046U 88032B   26027.24879523  .00009062  00000+0  42793-3 0  9992
2 19046  97.5130  10.6850 0027062  22.5733 337.6685 15.19335411 45815
SL-16 R/B               
1 19120U 88039B   26026.77308865  .00000020  00000+0  32143-4 0  9999
2 19120  71.0149 157.1803 0020291  39.6545 320.6060 14.19608963952435
COSMOS 1953             
1 19210U 88050A   26026.91283497  .00011424  00000+0  42113-3 0  9998
2 19210  82.5074 200.2302 0010348 272.3508  87.6546 15.27629198 31407
SL-8 R/B                
1 19257U 88053B   26026.45474705  .00000390  00000+0  13494-3 0  9995
2 19257  74.0462 190.3071 0019807  18.5332  43.6567 14.38888651970523
COSMOS 1975             
1 19573U 88093A   26027.32880257  .00012818  00000+0  47757-3 0  9997
2 19573  82.5213 159.1654 0010749 320.7517  39.2941 15.27279993 13090
SL-14 R/B               
1 19574U 88093B   26027.24106883  .00000762  00000+0  84951-4 0  9998
2 19574  82.5292  80.9642 0020937 171.0995 255.2243 14.85609968994885
SL-16 R/B               
1 19650U 88102B   26027.30086734 -.00000163  00000+0 -58098-4 0  9993
2 19650  70.9971 238.5802 0011961  70.6065 289.6350 14.16147852921033
INTERCOSMOS 24          
1 20261U 89080A   26027.26181399  .00000681  00000+0  19433-3 0  9999
2 20261  82.6078 131.3617 1188700  28.9837 337.2244 12.59503148661587
SL-14 R/B               
1 20262U 89080C   26027.26756247  .00000473  00000+0  14383-3 0  9998
2 20262  82.5926 199.7816 1229467 279.4951  66.9571 12.50447752654977
DELTA 1 R/B             
1 20323U 89089B   26027.30357781  .00000756  00000+0  19598-3 0  9997
2 20323  97.0732 241.3163 0067604 253.2117 106.1657 14.50624408889739
ARIANE 40 R/B           
1 20443U 90005H   26027.11848772  .00000499  00000+0  17240-3 0  9990
2 20443  98.3172  88.9998 0009458 336.0435  24.0313 14.39840387886828
