CCSDS_OMM_VERS = 2.0
CREATION_DATE  = 
ORIGINATOR     = 

OBJECT_NAME    = COSMOS 1933
OBJECT_ID      = 1988-020A
CENTER_NAME    = EARTH
REF_FRAME      = TEME
TIME_SYSTEM    = UTC
MEAN_ELEMENT_THEORY = SGP/SGP4

EPOCH          = 2026-01-27T02:58:55.381440
MEAN_MOTION    = 15.17605002
ECCENTRICITY   = .00044237
INCLINATION    = 82.5145
RA_OF_ASC_NODE = 292.0283
ARG_OF_PERICENTER = 8.7172
MEAN_ANOMALY   = 351.4138

EPHEMERIS_TYPE = 0
CLASSIFICATION_TYPE = U
NORAD_CAT_ID   = 18958
ELEMENT_SET_NO = 999
REV_AT_EPOCH   = 4392
BSTAR          = .32199472E-3
MEAN_MOTION_DOT = .6502E-4
MEAN_MOTION_DDOT = 0

CCSDS_OMM_VERS = 2.0
CREATION_DATE  = 
ORIGINATOR     = 

OBJECT_NAME    = SL-3 R/B
OBJECT_ID      = 1988-032B
CENTER_NAME    = EARTH
REF_FRAME      = TEME
TIME_SYSTEM    = UTC
MEAN_ELEMENT_THEORY = SGP/SGP4

EPOCH          = 2026-01-27T05:58:15.907872
MEAN_MOTION    = 15.19335411
ECCENTRICITY   = .00270627
INCLINATION    = 97.5130
RA_OF_ASC_NODE = 10.6850
ARG_OF_PERICENTER = 22.5733
MEAN_ANOMALY   = 337.6685

EPHEMERIS_TYPE = 0
CLASSIFICATION_TYPE = U
NORAD_CAT_ID   = 19046
ELEMENT_SET_NO = 999
REV_AT_EPOCH   = 4581
BSTAR          = .42792901E-3
MEAN_MOTION_DOT = .9062E-4
MEAN_MOTION_DDOT = 0

CCSDS_OMM_VERS = 2.0
CREATION_DATE  = 
ORIGINATOR     = 

OBJECT_NAME    = SL-16 R/B
OBJECT_ID      = 1988-039B
CENTER_NAME    = EARTH
REF_FRAME      = TEME
TIME_SYSTEM    = UTC
MEAN_ELEMENT_THEORY = SGP/SGP4

EPOCH          = 2026-01-26T18:33:14.859360
MEAN_MOTION    = 14.19608963
ECCENTRICITY   = .00202911
INCLINATION    = 71.0149
RA_OF_ASC_NODE = 157.1803
ARG_OF_PERICENTER = 39.6545
MEAN_ANOMALY   = 320.6060

EPHEMERIS_TYPE = 0
CLASSIFICATION_TYPE = U
NORAD_CAT_ID   = 19120
ELEMENT_SET_NO = 999
REV_AT_EPOCH   = 95243
BSTAR          = .32143249E-4
MEAN_MOTION_DOT = .2E-6
MEAN_MOTION_DDOT = 0

CCSDS_OMM_VERS = 2.0
CREATION_DATE  = 
ORIGINATOR     = 

OBJECT_NAME    = COSMOS 1953
OBJECT_ID      = 1988-050A
CENTER_NAME    = EARTH
REF_FRAME      = TEME
TIME_SYSTEM    = UTC
MEAN_ELEMENT_THEORY = SGP/SGP4

EPOCH          = 2026-01-26T21:54:28.941408
MEAN_MOTION    = 15.27629198
ECCENTRICITY   = .0010348
INCLINATION    = 82.5074
RA_OF_ASC_NODE = 200.2302
ARG_OF_PERICENTER = 272.3508
MEAN_ANOMALY   = 87.6546

EPHEMERIS_TYPE = 0
CLASSIFICATION_TYPE = U
NORAD_CAT_ID   = 19210
ELEMENT_SET_NO = 999
REV_AT_EPOCH   = 3140
BSTAR          = .42112783E-3
MEAN_MOTION_DOT = .11424E-3
MEAN_MOTION_DDOT = 0

CCSDS_OMM_VERS = 2.0
CREATION_DATE  = 
ORIGINATOR     = 

OBJECT_NAME    = SL-8 R/B
OBJECT_ID      = 1988-053B
CENTER_NAME    = EARTH
REF_FRAME      = TEME
TIME_SYSTEM    = UTC
MEAN_ELEMENT_THEORY = SGP/SGP4

EPOCH          = 2026-01-26T10:54:50.145120
MEAN_MOTION    = 14.38888651
ECCENTRICITY   = .00198071
INCLINATION    = 74.0462
RA_OF_ASC_NODE = 190.3071
ARG_OF_PERICENTER = 18.5332
MEAN_ANOMALY   = 43.6567

EPHEMERIS_TYPE = 0
CLASSIFICATION_TYPE = U
NORAD_CAT_ID   = 19257
ELEMENT_SET_NO = 999
REV_AT_EPOCH   = 97052
BSTAR          = .134941E-3
MEAN_MOTION_DOT = .39E-5
MEAN_MOTION_DDOT = 0

CCSDS_OMM_VERS = 2.0
CREATION_DATE  = 
ORIGINATOR     = 

OBJECT_NAME    = COSMOS 1975
OBJECT_ID      = 1988-093A
CENTER_NAME    = EARTH
REF_FRAME      = TEME
TIME_SYSTEM    = UTC
MEAN_ELEMENT_THEORY = SGP/SGP4

EPOCH          = 2026-01-27T07:53:28.542048
MEAN_MOTION    = 15.27279993
ECCENTRICITY   = .00107499
INCLINATION    = 82.5213
RA_OF_ASC_NODE = 159.1654
ARG_OF_PERICENTER = 320.7517
MEAN_ANOMALY   = 39.2941

EPHEMERIS_TYPE = 0
CLASSIFICATION_TYPE = U
NORAD_CAT_ID   = 19573
ELEMENT_SET_NO = 999
REV_AT_EPOCH   = 1309
BSTAR          = .47757467E-3
MEAN_MOTION_DOT = .12818E-3
MEAN_MOTION_DDOT = 0

CCSDS_OMM_VERS = 2.0
CREATION_DATE  = 
ORIGINATOR     = 

OBJECT_NAME    = SL-14 R/B
OBJECT_ID      = 1988-093B
CENTER_NAME    = EARTH
REF_FRAME      = TEME
TIME_SYSTEM    = UTC
MEAN_ELEMENT_THEORY = SGP/SGP4

EPOCH          = 2026-01-27T05:47:08.346912
MEAN_MOTION    = 14.85609968
ECCENTRICITY   = .00209372
INCLINATION    = 82.5292
RA_OF_ASC_NODE = 80.9642
ARG_OF_PERICENTER = 171.0995
MEAN_ANOMALY   = 255.2243

EPHEMERIS_TYPE = 0
CLASSIFICATION_TYPE = U
NORAD_CAT_ID   = 19574
ELEMENT_SET_NO = 999
REV_AT_EPOCH   = 99488
BSTAR          = .84951186E-4
MEAN_MOTION_DOT = .762E-5
MEAN_MOTION_DDOT = 0

CCSDS_OMM_VERS = 2.0
CREATION_DATE  = 
ORIGINATOR     = 

OBJECT_NAME    = SL-16 R/B
OBJECT_ID      = 1988-102B
CENTER_NAME    = EARTH
REF_FRAME      = TEME
TIME_SYSTEM    = UTC
MEAN_ELEMENT_THEORY = SGP/SGP4

EPOCH          = 2026-01-27T07:13:14.938176
MEAN_MOTION    = 14.16147852
ECCENTRICITY   = .00119614
INCLINATION    = 70.9971
RA_OF_ASC_NODE = 238.5802
ARG_OF_PERICENTER = 70.6065
MEAN_ANOMALY   = 289.6350

EPHEMERIS_TYPE = 0
CLASSIFICATION_TYPE = U
NORAD_CAT_ID   = 19650
ELEMENT_SET_NO = 999
REV_AT_EPOCH   = 92103
BSTAR          = -.58097934E-4
MEAN_MOTION_DOT = -.163E-5
MEAN_MOTION_DDOT = 0

CCSDS_OMM_VERS = 2.0
CREATION_DATE  = 
ORIGINATOR     = 

OBJECT_NAME    = INTERCOSMOS 24
OBJECT_ID      = 1989-080A
CENTER_NAME    = EARTH
REF_FRAME      = TEME
TIME_SYSTEM    = UTC
MEAN_ELEMENT_THEORY = SGP/SGP4

EPOCH          = 2026-01-27T06:17:00.728736
MEAN_MOTION    = 12.59503148
ECCENTRICITY   = .11887005
INCLINATION    = 82.6078
RA_OF_ASC_NODE = 131.3617
ARG_OF_PERICENTER = 28.9837
MEAN_ANOMALY   = 337.2244

EPHEMERIS_TYPE = 0
CLASSIFICATION_TYPE = U
NORAD_CAT_ID   = 20261
ELEMENT_SET_NO = 999
REV_AT_EPOCH   = 66158
BSTAR          = .19432794E-3
MEAN_MOTION_DOT = .681E-5
MEAN_MOTION_DDOT = 0

CCSDS_OMM_VERS = 2.0
CREATION_DATE  = 
ORIGINATOR     = 

OBJECT_NAME    = SL-14 R/B
OBJECT_ID      = 1989-080C
CENTER_NAME    = EARTH
REF_FRAME      = TEME
TIME_SYSTEM    = UTC
MEAN_ELEMENT_THEORY = SGP/SGP4

EPOCH          = 2026-01-27T06:25:17.397408
MEAN_MOTION    = 12.50447752
ECCENTRICITY   = .12294671
INCLINATION    = 82.5926
RA_OF_ASC_NODE = 199.7816
ARG_OF_PERICENTER = 279.4951
MEAN_ANOMALY   = 66.9571

EPHEMERIS_TYPE = 0
CLASSIFICATION_TYPE = U
NORAD_CAT_ID   = 20262
ELEMENT_SET_NO = 999
REV_AT_EPOCH   = 65497
BSTAR          = .14383345E-3
MEAN_MOTION_DOT = .473E-5
MEAN_MOTION_DDOT = 0

CCSDS_OMM_VERS = 2.0
CREATION_DATE  = 
ORIGINATOR     = 

OBJECT_NAME    = DELTA 1 R/B
OBJECT_ID      = 1989-089B
CENTER_NAME    = EARTH
REF_FRAME      = TEME
TIME_SYSTEM    = UTC
MEAN_ELEMENT_THEORY = SGP/SGP4

EPOCH          = 2026-01-27T07:17:09.122784
MEAN_MOTION    = 14.50624408
ECCENTRICITY   = .00676049
INCLINATION    = 97.0732
RA_OF_ASC_NODE = 241.3163
ARG_OF_PERICENTER = 253.2117
MEAN_ANOMALY   = 106.1657

EPHEMERIS_TYPE = 0
CLASSIFICATION_TYPE = U
NORAD_CAT_ID   = 20323
ELEMENT_SET_NO = 999
REV_AT_EPOCH   = 88973
BSTAR          = .19598461E-3
MEAN_MOTION_DOT = .756E-5
MEAN_MOTION_DDOT = 0

CCSDS_OMM_VERS = 2.0
CREATION_DATE  = 
ORIGINATOR     = 

OBJECT_NAME    = ARIANE 40 R/B
OBJECT_ID      = 1990-005H
CENTER_NAME    = EARTH
REF_FRAME      = TEME
TIME_SYSTEM    = UTC
MEAN_ELEMENT_THEORY = SGP/SGP4

EPOCH          = 2026-01-27T02:50:37.339008
MEAN_MOTION    = 14.39840387
ECCENTRICITY   = .00094581
INCLINATION    = 98.3172
RA_OF_ASC_NODE = 88.9998
ARG_OF_PERICENTER = 336.0435
MEAN_ANOMALY   = 24.0313

EPHEMERIS_TYPE = 0
CLASSIFICATION_TYPE = U
NORAD_CAT_ID   = 20443
ELEMENT_SET_NO = 999
REV_AT_EPOCH   = 88682
BSTAR          = .17239906E-3
MEAN_MOTION_DOT = .499E-5
MEAN_MOTION_DDOT = 0

